#dP2020 12 29  0  0  0.00000000      96 __u+U ITR00 FIT  IAC
## 2138 172800.00000000   900.00000000 59212 0.0000000000000
+  117   C01C02C03C04C05C06C07C08C09C10C11C12C13C14C16C19C20
+        C21C22C23C24C25C26C27C28C29C30C32C33C34C35C36C37E01
+        E02E03E04E05E07E08E09E11E12E13E14E15E18E19E21E24E25
+        E26E27E30E31E33E36G01G02G03G04G05G06G07G08G09G10G11
+        G12G13G14G15G16G17G18G19G20G21G22G23G24G25G26G27G28
+        G29G30G31G32J01J02J03J07R01R02R03R04R05R06R07R08R09
+        R10R11R12R13R14R15R16R17R18R19R20R21R22R23R24  0  0
++        16 13 13 15 13  8  9  8  8  9  8  0  8  8  8  8  8
++         8  8  8  8  8  8  8  8  8  8  8  8  8  8  8  8  4
++         4  5  5  5  4  4  6  5  5  5  4  5  4  5  4  4  4
++         4  4  4  4  4  5  4  4  4  4  4  4  4  3  4  4  4
++         4  4  3  4  4  4  4  4  4  4  4  3  4  4  4  4  4
++         4  4  4  4  9  8  8  0  6  6  6  6  6 13  6  6  6
++        13  8  6  6  6  6  6  6  6  7  7  6  6 13  6  0  0
%c M  cc GPS ccc cccc cccc cccc cccc ccccc ccccc ccccc ccccc
%c cc cc ccc ccc cccc cccc cccc cccc ccccc ccccc ccccc ccccc
%f  0.0000000  0.000000000  0.00000000000  0.000000000000000
%f  0.0000000  0.000000000  0.00000000000  0.000000000000000
%i    0    0    0    0      0      0      0      0         0
%i    0    0    0    0      0      0      0      0         0
/* INFORMATION & ANALYSIS CENTER (IAC)            RAPID DATA
/* S/V CLOCKS ARE ALIGNED TO GNSS TIME                      
/* G:C1WC2W R:C1PC2P E:C1XC5X C:C2IC6I J:C1CC2S             
/* PCV:IGS14_2134 OL/AL:FES2004  NONE     YN ORB:CoN CLK:CoN
*  2020 12 29 10  0  0.00000000
PC01 -34381.328790  24463.181291    414.422532   -726.825265
PC02   4404.595980  41882.206602  -1073.907113    635.359803
PC03 -14692.467658  39486.840303  -1318.081597    277.387010
PC04 -39647.131099  14429.141166      4.807378   -293.332349
PC05  21875.077693  36007.799762  -1168.482581   -409.593197
PC06 -17882.772160  37803.049774  -2420.553878     91.805048
PC07  -7342.550956  28500.473227  30591.159997   -175.737258
PC08 -21189.065740  20952.419066 -29881.772840   -840.316059
PC09  -7696.294933  39029.285420  13599.936022    840.048278
PC10   5679.831660  34549.691999  23998.311569   -113.828293
PC11 -19529.323437   7948.517278  18374.062329   -849.761274
PC12      0.000000      0.000000      0.000000 999999.999999
PC13  -6133.468092  23460.222630 -34442.443858     74.325619
PC14 -18152.970377  -2797.348181 -20975.023731   -214.637950
PC16 -16843.974324  38503.361396  -1457.345832   -643.842153
PC19  13980.679964  -7567.106261  22953.602080    671.338500
PC20  19319.292970  11463.534478  16579.817838   -909.860198
PC21 -13292.609833 -24527.272397     12.742394   -771.711601
PC22    418.704217 -22734.271607  16159.105105   -828.416006
PC23  -7981.631415  15338.799282  21906.945023   -887.411403
PC24 -26577.602717  -5631.885717  -6461.822826   -734.467564
PC25 -24173.845751   7891.147788  11516.038616   -878.541281
PC26 -14205.764103 -14065.166772 -19494.253334    959.215560
PC27   4203.958024  19017.995902 -19990.232802    457.398628
PC28 -11024.761040  24916.622081  -6041.791545   -128.242883
PC29  19077.784503 -16912.979387 -11349.652513    331.223954
PC30  16771.214394   1859.882418 -22227.487395    423.921327
PC32  13480.724369  24436.344403    -14.054742   -881.294783
PC33 -13998.378769   7580.119357 -22920.398994   -890.518187
PC34 -17060.867446  -1280.646997  22039.727716   -775.452995
PC35  10335.529526 -25287.933235   5783.994285   -490.984554
PC36  24511.338432  -7129.783669 -11244.433509   -790.927389
PC37  12992.700721  14632.146666  19901.642157   -861.672934
PE01  16476.423000  -8636.513959 -23018.662793  -1013.467745
PE02 -16409.605926   8699.694334  23054.283513    187.119108
PE03 -12502.160002  19447.426999 -18499.068610   -381.342158
PE04    706.528702 -29501.016809   2323.661633   -677.792921
PE05 -17129.791543  -2174.531124 -24047.137484   -317.336425
PE07  11716.134140  22327.326503  15509.116229   -480.747481
PE08   -338.601892  29532.627996  -2062.809309   6070.024568
PE09 -11821.801870 -22136.595392 -15690.129459   5816.896323
PE11 -12591.219451 -10997.480259  24427.179972   6558.082465
PE12   8080.477083 -20474.831610  19805.761368   5433.502862
PE13  12245.064181  11141.248862 -24525.090757    409.268539
PE14  -3715.857990 -21198.810259  10774.235776  -1276.118944
PE15  -7973.615015  20428.660471 -19867.378992    836.856650
PE18  11904.101959  21616.068203 -20876.608270  -1394.563171
PE19  13390.981415 -17340.247800  19902.850913    164.962794
PE21  26882.371352   6300.051674 -10655.907373   -639.893359
PE24 -21487.932098 -18392.318972  -8788.379937   -660.966866
PE25 -26922.190495  -6432.124995  10510.293912   -523.221902
PE26  25504.958657  -5000.812138 -14146.973200   2327.361754
PE27  21941.400608  18055.384865   8270.502824     62.347712
PE30   3259.099509  18984.635835  22463.205546   3306.216801
PE31  -4163.747461 -19125.887275 -22198.910449   -476.898631
PE33  23462.147259 -17698.593927   3556.984040   -464.439663
PE36 -25228.504213   4663.087778  14774.944090    461.449900
PG01   -793.585098  15541.080284 -21712.680143    788.816735
PG02  20473.396999 -15093.032726   8298.642778   -559.937637
PG03   9323.047399  20728.367527 -13906.641732    -42.334878
PG04   -337.974190  25437.309444   7546.994568   -168.389213
PG05   9673.274195 -11813.169582  21582.063384    -29.592118
PG06  25534.760733  -5091.692550  -5300.676021     -4.537896
PG07  15898.715566   9374.254868  19596.204229      0.899724
PG08  -5207.977157  25866.099144    991.496727     -4.636929
PG09   8911.192417  18462.504025  16810.005145   -306.869194
PG10 -22441.359478  -9633.115268 -10663.354644    -27.015185
PG11  -6998.868000  22351.762810 -13309.357739    -68.005328
PG12  -4879.926524 -20561.421771 -16422.700091     20.343691
PG13  13231.643046 -21254.714304   8549.138894     80.094956
PG14  21895.240673  11945.822982  -9143.405851     75.372999
PG15   1786.474546 -26301.529206   -351.007732   -180.010635
PG16 -11089.111161   9783.137949  21839.522880   -257.265443
PG17  14700.699415    796.876497 -21669.159854    373.330863
PG18 -17498.004006  -7749.897690  18437.027694    336.939982
PG19  16177.143682  -6876.219768 -20166.226228    -59.003777
PG20 -21776.738710 -15379.510569   1527.725050    525.405748
PG21  -9585.518802  17139.716412 -16958.649528     82.001977
PG22   1993.091356  18515.291396 -18799.345328   -707.450507
PG23 -20879.015609 -16428.236473   -814.514594    113.333943
PG24   4671.364273 -17566.683890 -19471.002400      4.448378
PG25 -16708.424279 -20006.117439  -6064.356034     49.063572
PG26 -19432.355308   1288.314304  18130.970048     21.787413
PG27 -12247.406570  19790.152879  12310.412968    -44.920277
PG28  20994.787679  10291.691733 -11852.026766    636.916374
PG29  -6089.579607 -19807.837047  16552.968125   -265.380684
PG30  23568.584115   2077.333284  12332.317768   -360.236024
PG31 -25951.755107   6182.920375  -2796.683472    -90.574589
PG32 -15447.103369    153.145814 -21503.021006     11.164168
PJ01 -20209.727155  23961.568793 -23654.407742   -335.405094
PJ02 -28407.760107  20809.783283  28056.522283      0.339363
PJ03 -31396.989996  27381.017104  11180.198379     -5.018723
PJ07      0.000000      0.000000      0.000000 999999.999999
PR01  -8668.545542   8252.495313 -22532.287167     72.721698
PR02   2721.189348  23520.357444  -9374.627502    460.636599
PR03  10928.101095  21556.516025   8108.495814     28.175285
PR04  12655.797052   7519.851806  20848.833899     67.704244
PR05   7388.724295 -10760.749612  21924.181186     63.771605
PR06  -3836.662008 -23762.894524   8468.495940    190.011614
PR07 -11068.277571 -21334.280388  -8585.022569    -41.986132
PR08 -12742.625804  -7533.214195 -20732.490212    -56.559522
PR09     35.494799 -11422.779735 -22788.583660     15.655788
PR10 -17177.305153 -10984.829540 -15387.049028    -65.103611
PR11 -25095.224890  -4264.810857   1598.969224      5.115261
PR12 -17829.931821   4761.991711  17647.287608    192.222489
PR13   -340.406104  11087.810161  22952.083911    -48.602806
PR14  17749.239731  11008.236328  14660.224552     59.256144
PR15  25031.059776   4496.003786  -1911.421145    106.139595
PR16  16935.522522  -5725.836887 -18157.080725     -9.654986
PR17   4059.595252  10863.128853 -22708.201368    386.554636
PR18  15547.702532  -3613.182666 -19892.541498     61.308356
PR19  19201.342593 -15192.668416  -7134.679379   -125.689070
PR20  11057.874545 -19310.156461  12522.073023   -429.941233
PR21  -4934.946249  -9930.493288  22976.179098   -176.569477
PR22 -15999.894990   4452.016104  19317.466983    -89.568756
PR23 -17297.730762  18744.302656   -364.967413    355.930841
PR24 -10143.763455  19477.692935 -12966.234695     25.800137
EOF
